{
    "links": {
        "self": "http://www.neowsapp.com/rest/v1/neo/3837751?api_key=iIulBulltgU6a56xZRHN4H3l9WmuAYTsLGpBGhQ2"
    },
    "id": "3837751",
    "neo_reference_id": "3837751",
    "name": "(2019 AK7)",
    "designation": "2019 AK7",
    "nasa_jpl_url": "http://ssd.jpl.nasa.gov/sbdb.cgi?sstr=3837751",
    "absolute_magnitude_h": 21.3,
    "estimated_diameter": {
        "kilometers": {
            "estimated_diameter_min": 0.1460679643,
            "estimated_diameter_max": 0.3266178974
        },
        "meters": {
            "estimated_diameter_min": 146.0679642714,
            "estimated_diameter_max": 326.6178974458
        },
        "miles": {
            "estimated_diameter_min": 0.090762397,
            "estimated_diameter_max": 0.2029508896
        },
        "feet": {
            "estimated_diameter_min": 479.2256199,
            "estimated_diameter_max": 1071.581062656
        }
    },
    "is_potentially_hazardous_asteroid": false,
    "close_approach_data": [
        {
            "close_approach_date": "2000-01-03",
            "close_approach_date_full": "2000-Jan-03 17:33",
            "epoch_date_close_approach": 946920780000,
            "relative_velocity": {
                "kilometers_per_second": "15.3619393949",
                "kilometers_per_hour": "55302.9818216843",
                "miles_per_hour": "34363.1222324793"
            },
            "miss_distance": {
                "astronomical": "0.2173193136",
                "lunar": "84.5372129904",
                "kilometers": "32510506.424422032",
                "miles": "20201091.9550547616"
            },
            "orbiting_body": "Earth"
        },
        {
            "close_approach_date": "2019-01-08",
            "close_approach_date_full": "2019-Jan-08 00:02",
            "epoch_date_close_approach": 1546905720000,
            "relative_velocity": {
                "kilometers_per_second": "17.4638843407",
                "kilometers_per_hour": "62869.9836264574",
                "miles_per_hour": "39064.9628816729"
            },
            "miss_distance": {
                "astronomical": "0.2305967979",
                "lunar": "89.7021543831",
                "kilometers": "34496789.794660473",
                "miles": "21435311.2098136074"
            },
            "orbiting_body": "Earth"
        },
        {
            "close_approach_date": "2031-01-03",
            "close_approach_date_full": "2031-Jan-03 07:20",
            "epoch_date_close_approach": 1925191200000,
            "relative_velocity": {
                "kilometers_per_second": "15.7571957223",
                "kilometers_per_hour": "56725.9046004031",
                "miles_per_hour": "35247.2711112894"
            },
            "miss_distance": {
                "astronomical": "0.476989074",
                "lunar": "185.548749786",
                "kilometers": "71356549.48367238",
                "miles": "44338903.826863644"
            },
            "orbiting_body": "Earth"
        },
        {
            "close_approach_date": "2038-01-15",
            "close_approach_date_full": "2038-Jan-15 04:17",
            "epoch_date_close_approach": 2147141820000,
            "relative_velocity": {
                "kilometers_per_second": "22.2139560773",
                "kilometers_per_hour": "79970.2418783117",
                "miles_per_hour": "49690.3983493321"
            },
            "miss_distance": {
                "astronomical": "0.4911692201",
                "lunar": "191.0648266189",
                "kilometers": "73477869.136521187",
                "miles": "45657030.7367869006"
            },
            "orbiting_body": "Earth"
        }
    ],
    "orbital_data": {
        "orbit_id": "6",
        "orbit_determination_date": "2019-07-27 14:01:41",
        "first_observation_date": "2019-01-07",
        "last_observation_date": "2019-02-01",
        "data_arc_in_days": 25,
        "observations_used": 51,
        "orbit_uncertainty": "7",
        "minimum_orbit_intersection": ".174697",
        "jupiter_tisserand_invariant": "3.870",
        "epoch_osculation": "2459000.5",
        "eccentricity": ".3770778656658856",
        "semi_major_axis": "1.783529611450491",
        "inclination": "28.55282453302414",
        "ascending_node_longitude": "109.4555282675235",
        "orbital_period": "869.9993200173673",
        "perihelion_distance": "1.111000072212834",
        "perihelion_argument": "325.3379712141657",
        "aphelion_distance": "2.456059150688149",
        "perihelion_time": "2459337.495857341162",
        "mean_anomaly": "220.5533293515716",
        "mean_motion": ".413793426864763",
        "equinox": "J2000",
        "orbit_class": {
            "orbit_class_type": "AMO",
            "orbit_class_description": "Near-Earth asteroid orbits similar to that of 1221 Amor",
            "orbit_class_range": "1.017 AU < q (perihelion) < 1.3 AU"
        }
    },
    "is_sentry_object": false
}